{"type": "FeatureCollection", "features": [ {"type": "Feature", "properties": {"norad_id": 34117, "name": "COSMOS 2251 DEB", "group": "cosmos-2251-debris", "lat": 58.686110547725114, "lon": 124.8328416350107, "alt_km": 738.6070309726347, "timestamp": "2025-12-18T15:47:11.619144+00:00", "meta": {"OBJECT_NAME": "COSMOS 2251 DEB", "OBJECT_ID": "1993-036KN", "EPOCH": "2025-12-18T05:14:42.542880", "MEAN_MOTION": 14.40033378, "ECCENTRICITY": 0.00547658, "INCLINATION": 74.0399, "RA_OF_ASC_NODE": 333.7057, "ARG_OF_PERICENTER": 48.4745, "MEAN_ANOMALY": 312.1089, "EPHEMERIS_TYPE": 0, "CLASSIFICATION_TYPE": "U", "NORAD_CAT_ID": 34117, "ELEMENT_SET_NO": 999, "REV_AT_EPOCH": 88202, "BSTAR": 0.00055082037, "MEAN_MOTION_DOT": 1.741e-05, "MEAN_MOTION_DDOT": 0}, "tle": {"line1": "1 34117U 93036KN  25352.21854795  .00001741  00000+0  55082-3 0  9990", "line2": "2 34117  74.0399 333.7057 0054765  48.4745 312.1089 14.40033378882024"}}, "geometry": {"type": "Point", "coordinates": [124.8328416350107, 58.686110547725114]}}, {"type": "Feature", "properties": {"norad_id": 34118, "name": "COSMOS 2251 DEB", "group": "cosmos-2251-debris", "lat": -69.86537725156505, "lon": 109.0565599112833, "alt_km": 632.8880470229415, "timestamp": "2025-12-18T15:47:11.619155+00:00", "meta": {"OBJECT_NAME": "COSMOS 2251 DEB", "OBJECT_ID": "1993-036KP", "EPOCH": "2025-12-18T04:06:39.479328", "MEAN_MOTION": 14.9413248, "ECCENTRICITY": 0.0060021, "INCLINATION": 73.9522, "RA_OF_ASC_NODE": 238.3108, "ARG_OF_PERICENTER": 67.2105, "MEAN_ANOMALY": 94.9493, "EPHEMERIS_TYPE": 0, "CLASSIFICATION_TYPE": "U", "NORAD_CAT_ID": 34118, "ELEMENT_SET_NO": 999, "REV_AT_EPOCH": 89257, "BSTAR": 0.0011398926, "MEAN_MOTION_DOT": 0.00012619, "MEAN_MOTION_DDOT": 0}, "tle": {"line1": "1 34118U 93036KP  25352.17129027  .00012619  00000+0  11399-2 0  9997", "line2": "2 34118  73.9522 238.3108 0060021  67.2105  94.9493 14.94132480892577"}}, "geometry": {"type": "Point", "coordinates": [109.0565599112833, -69.86537725156505]}}, {"type": "Feature", "properties": {"norad_id": 34120, "name": "COSMOS 2251 DEB", "group": "cosmos-2251-debris", "lat": 69.74097512437731, "lon": -102.9659151609927, "alt_km": 796.4503460741762, "timestamp": "2025-12-18T15:47:11.619165+00:00", "meta": {"OBJECT_NAME": "COSMOS 2251 DEB", "OBJECT_ID": "1993-036KR", "EPOCH": "2025-12-18T00:41:08.517120", "MEAN_MOTION": 13.98689846, "ECCENTRICITY": 0.01821858, "INCLINATION": 73.9906, "RA_OF_ASC_NODE": 207.0598, "ARG_OF_PERICENTER": 33.5686, "MEAN_ANOMALY": 115.4328, "EPHEMERIS_TYPE": 0, "CLASSIFICATION_TYPE": "U", "NORAD_CAT_ID": 34120, "ELEMENT_SET_NO": 999, "REV_AT_EPOCH": 86054, "BSTAR": 0.00029730752, "MEAN_MOTION_DOT": 4.69e-06, "MEAN_MOTION_DDOT": 0}, "tle": {"line1": "1 34120U 93036KR  25352.02857080  .00000469  00000+0  29731-3 0  9991", "line2": "2 34120  73.9906 207.0598 0182185  33.5686 115.4328 13.98689846860542"}}, "geometry": {"type": "Point", "coordinates": [-102.9659151609927, 69.74097512437731]}}, {"type": "Feature", "properties": {"norad_id": 34121, "name": "COSMOS 2251 DEB", "group": "cosmos-2251-debris", "lat": 34.75440178637293, "lon": -104.45998351557331, "alt_km": 1066.3374395356886, "timestamp": "2025-12-18T15:47:11.619176+00:00", "meta": {"OBJECT_NAME": "COSMOS 2251 DEB", "OBJECT_ID": "1993-036KS", "EPOCH": "2025-12-18T06:33:08.741376", "MEAN_MOTION": 13.91949154, "ECCENTRICITY": 0.02405913, "INCLINATION": 73.9924, "RA_OF_ASC_NODE": 87.688, "ARG_OF_PERICENTER": 291.969, "MEAN_ANOMALY": 85.7913, "EPHEMERIS_TYPE": 0, "CLASSIFICATION_TYPE": "U", "NORAD_CAT_ID": 34121, "ELEMENT_SET_NO": 999, "REV_AT_EPOCH": 85202, "BSTAR": 0.00098012123, "MEAN_MOTION_DOT": 1.558e-05, "MEAN_MOTION_DDOT": 0}, "tle": {"line1": "1 34121U 93036KS  25352.27301784  .00001558  00000+0  98012-3 0  9992", "line2": "2 34121  73.9924  87.6880 0240591 291.9690  85.7913 13.91949154852027"}}, "geometry": {"type": "Point", "coordinates": [-104.45998351557331, 34.75440178637293]}}, {"type": "Feature", "properties": {"norad_id": 34122, "name": "COSMOS 2251 DEB", "group": "cosmos-2251-debris", "lat": 26.083294513440418, "lon": -80.80697292502796, "alt_km": 727.1273191667506, "timestamp": "2025-12-18T15:47:11.619186+00:00", "meta": {"OBJECT_NAME": "COSMOS 2251 DEB", "OBJECT_ID": "1993-036KT", "EPOCH": "2025-12-17T14:33:44.112384", "MEAN_MOTION": 14.65108716, "ECCENTRICITY": 0.00845953, "INCLINATION": 74.0359, "RA_OF_ASC_NODE": 109.2699, "ARG_OF_PERICENTER": 4.7539, "MEAN_ANOMALY": 6.266, "EPHEMERIS_TYPE": 0, "CLASSIFICATION_TYPE": "U", "NORAD_CAT_ID": 34122, "ELEMENT_SET_NO": 999, "REV_AT_EPOCH": 88756, "BSTAR": 0.0008456712, "MEAN_MOTION_DOT": 4.759e-05, "MEAN_MOTION_DDOT": 0}, "tle": {"line1": "1 34122U 93036KT  25351.60676056  .00004759  00000+0  84567-3 0  9992", "line2": "2 34122  74.0359 109.2699 0084595   4.7539   6.2660 14.65108716887560"}}, "geometry": {"type": "Point", "coordinates": [-80.80697292502796, 26.083294513440418]}}, {"type": "Feature", "properties": {"norad_id": 34127, "name": "COSMOS 2251 DEB", "group": "cosmos-2251-debris", "lat": 64.04173705769652, "lon": 68.7892391371521, "alt_km": 858.4068435324752, "timestamp": "2025-12-18T15:47:11.619196+00:00", "meta": {"OBJECT_NAME": "COSMOS 2251 DEB", "OBJECT_ID": "1993-036KY", "EPOCH": "2025-12-18T03:59:10.580352", "MEAN_MOTION": 14.31594503, "ECCENTRICITY": 0.01149598, "INCLINATION": 74.1797, "RA_OF_ASC_NODE": 34.057, "ARG_OF_PERICENTER": 233.0204, "MEAN_ANOMALY": 183.6042, "EPHEMERIS_TYPE": 0, "CLASSIFICATION_TYPE": "U", "NORAD_CAT_ID": 34127, "ELEMENT_SET_NO": 999, "REV_AT_EPOCH": 86849, "BSTAR": 0.0013233737, "MEAN_MOTION_DOT": 3.764e-05, "MEAN_MOTION_DDOT": 0}, "tle": {"line1": "1 34127U 93036KY  25352.16609468  .00003764  00000+0  13234-2 0  9999", "line2": "2 34127  74.1797  34.0570 0114959 233.0204 183.6042 14.31594503868490"}}, "geometry": {"type": "Point", "coordinates": [68.7892391371521, 64.04173705769652]}}, {"type": "Feature", "properties": {"norad_id": 34128, "name": "COSMOS 2251 DEB", "group": "cosmos-2251-debris", "lat": -38.9687495345654, "lon": -88.77816885694843, "alt_km": 564.4178917960862, "timestamp": "2025-12-18T15:47:11.619207+00:00", "meta": {"OBJECT_NAME": "COSMOS 2251 DEB", "OBJECT_ID": "1993-036KZ", "EPOCH": "2025-12-18T06:55:46.920864", "MEAN_MOTION": 15.01379813, "ECCENTRICITY": 0.00261183, "INCLINATION": 73.9993, "RA_OF_ASC_NODE": 285.3963, "ARG_OF_PERICENTER": 36.4314, "MEAN_ANOMALY": 89.3038, "EPHEMERIS_TYPE": 0, "CLASSIFICATION_TYPE": "U", "NORAD_CAT_ID": 34128, "ELEMENT_SET_NO": 999, "REV_AT_EPOCH": 89250, "BSTAR": 0.0013619685, "MEAN_MOTION_DOT": 0.00017696, "MEAN_MOTION_DDOT": 0}, "tle": {"line1": "1 34128U 93036KZ  25352.28873751  .00017696  00000+0  13620-2 0  9999", "line2": "2 34128  73.9993 285.3963 0026118  36.4314  89.3038 15.01379813892508"}}, "geometry": {"type": "Point", "coordinates": [-88.77816885694843, -38.9687495345654]}}, {"type": "Feature", "properties": {"norad_id": 34129, "name": "COSMOS 2251 DEB", "group": "cosmos-2251-debris", "lat": 51.10144238707052, "lon": -11.272460479373848, "alt_km": 614.3108821151027, "timestamp": "2025-12-18T15:47:11.619217+00:00", "meta": {"OBJECT_NAME": "COSMOS 2251 DEB", "OBJECT_ID": "1993-036LA", "EPOCH": "2025-12-17T16:46:03.728064", "MEAN_MOTION": 14.75822884, "ECCENTRICITY": 0.00331484, "INCLINATION": 74.0347, "RA_OF_ASC_NODE": 329.8218, "ARG_OF_PERICENTER": 49.7346, "MEAN_ANOMALY": 310.6718, "EPHEMERIS_TYPE": 0, "CLASSIFICATION_TYPE": "U", "NORAD_CAT_ID": 34129, "ELEMENT_SET_NO": 999, "REV_AT_EPOCH": 61371, "BSTAR": 0.0010878619, "MEAN_MOTION_DOT": 7.502e-05, "MEAN_MOTION_DDOT": 0}, "tle": {"line1": "1 34129U 93036LA  25351.69865426  .00007502  00000+0  10879-2 0  9992", "line2": "2 34129  74.0347 329.8218 0033148  49.7346 310.6718 14.75822884613714"}}, "geometry": {"type": "Point", "coordinates": [-11.272460479373848, 51.10144238707052]}}, {"type": "Feature", "properties": {"norad_id": 34136, "name": "COSMOS 2251 DEB", "group": "cosmos-2251-debris", "lat": -55.67709196076165, "lon": 6.145122024806983, "alt_km": 686.535098216782, "timestamp": "2025-12-18T15:47:11.619226+00:00", "meta": {"OBJECT_NAME": "COSMOS 2251 DEB", "OBJECT_ID": "1993-036LH", "EPOCH": "2025-12-18T05:00:06.287040", "MEAN_MOTION": 14.80116904, "ECCENTRICITY": 0.00853914, "INCLINATION": 74.0205, "RA_OF_ASC_NODE": 31.8471, "ARG_OF_PERICENTER": 153.352, "MEAN_ANOMALY": 273.5642, "EPHEMERIS_TYPE": 0, "CLASSIFICATION_TYPE": "U", "NORAD_CAT_ID": 34136, "ELEMENT_SET_NO": 999, "REV_AT_EPOCH": 90091, "BSTAR": 0.00031002183, "MEAN_MOTION_DOT": 2.466e-05, "MEAN_MOTION_DDOT": 0}, "tle": {"line1": "1 34136U 93036LH  25352.20840610  .00002466  00000+0  31002-3 0  9992", "line2": "2 34136  74.0205  31.8471 0085391 153.3520 273.5642 14.80116904900918"}}, "geometry": {"type": "Point", "coordinates": [6.145122024806983, -55.67709196076165]}}, {"type": "Feature", "properties": {"norad_id": 34139, "name": "COSMOS 2251 DEB", "group": "cosmos-2251-debris", "lat": -61.072735935312046, "lon": -148.42420754347518, "alt_km": 674.1846925516365, "timestamp": "2025-12-18T15:47:11.619236+00:00", "meta": {"OBJECT_NAME": "COSMOS 2251 DEB", "OBJECT_ID": "1993-036LL", "EPOCH": "2025-12-18T03:36:24.636096", "MEAN_MOTION": 14.59134472, "ECCENTRICITY": 0.00425462, "INCLINATION": 74.0311, "RA_OF_ASC_NODE": 243.7499, "ARG_OF_PERICENTER": 313.9668, "MEAN_ANOMALY": 195.9906, "EPHEMERIS_TYPE": 0, "CLASSIFICATION_TYPE": "U", "NORAD_CAT_ID": 34139, "ELEMENT_SET_NO": 999, "REV_AT_EPOCH": 88228, "BSTAR": 0.0010105781, "MEAN_MOTION_DOT": 4.792e-05, "MEAN_MOTION_DDOT": 0}, "tle": {"line1": "1 34139U 93036LL  25352.15028514  .00004792  00000+0  10106-2 0  9995", "line2": "2 34139  74.0311 243.7499 0042546 313.9668 195.9906 14.59134472882280"}}, "geometry": {"type": "Point", "coordinates": [-148.42420754347518, -61.072735935312046]}}]}